format  = 'OEF2.0'       ! file format
rectype = 'ML'           ! record type (1L/ML)
refsys  = ECLM J2000     ! default reference system
END_OF_HEADER
30102
! Equinoctial elements: a, e*sin(LP), e*cos(LP), tan(i/2)*sin(LN), tan(i/2)*cos(LN), mean long.
 EQU   5.2485744194073289E+00  -0.023697267537809   0.033177684377767    0.140992943978274    0.155640755599237 127.9799728661804
 MJD     56184.252843210 TDT
 MAG  10.824  0.150
! Non-grav parameters: model used, actual number in use, dimension
 LSP   0  0    6
! RMS    1.19514E-07   5.90551E-08   7.04666E-08   5.63001E-08   6.80901E-08   5.54096E-06
! EIG   4.87757E-08   5.62836E-08   6.41937E-08   6.83743E-08   1.02039E-07   1.23046E-07
! WEA   0.95738  -0.03488  -0.27707  -0.01061   0.01378  -0.07160
 COV   1.428364996659376E-14 -5.043151058201458E-16 -2.851761131190576E-15
 COV  -4.725653056347823E-17  4.846289325537735E-17 -8.995392398161900E-15
 COV   3.487507685520437E-15  2.345336331347994E-16  1.665166680336247E-17
 COV   7.379477859377262E-18 -1.131747363429032E-13  4.965541073655034E-15
 COV   7.617350725167648E-17 -5.788203244955497E-17  6.334535254753434E-14
 COV   3.169699530208108E-15  4.545951308877453E-16  5.309800466537716E-14
 COV   4.636267906560195E-15 -6.992615502559649E-14  3.070223065370611E-11
 NOR   7.938634416482711E+13  6.733858072990422E+12  4.589598153681270E+13
 NOR   1.064216955180728E+12 -1.141900475410118E+12 -5.105295854112275E+10
 NOR   3.350837216212701E+14 -2.909017345982550E+13 -2.763339834060123E+13
 NOR   2.281160927103821E+13  1.396925186332998E+12  2.367175985055668E+14
 NOR   6.413313661192097E+12 -7.305974155763340E+12 -6.099163650662778E+11
 NOR   3.352597031610723E+14 -4.477420523726552E+13 -7.965737966140176E+11
 NOR   2.305432212051343E+14  7.013382108319012E+11  4.193868333465771E+10
30102
! Keplerian elements: a, e, i, long. node, arg. peric., mean anomaly
 KEP   5.2485744194073289E+00 0.040771549264521  23.7203565529475  42.1730230435507 282.2905324002848 163.5164174223449
 MJD     56184.252843210 TDT
 MAG  10.824  0.150
! Non-grav parameters: model used, actual number in use, dimension
 LSP   0  0    6
! RMS    1.19514E-07   6.51489E-08   7.30288E-06   1.58577E-05   9.22811E-05   9.21818E-05
! EIG   4.52239E-08   6.82281E-08   1.16704E-07   1.25123E-07   3.31064E-07   2.26900E-06
! WEA   0.01390  -0.00490  -0.00118   0.00968  -0.70745   0.70654
 COV   1.428364996659376E-14 -2.027490792884343E-15  4.598750086647218E-16
 COV  -1.843207215446651E-14 -2.887545154698414E-12  2.896981834454718E-12
 COV   4.244382698129631E-15 -3.258115757464927E-16  1.998961114424991E-14
 COV   1.069297154701371E-12 -9.719602426805578E-13  5.333200704258051E-11
 COV  -2.050896751952509E-11  2.333739550748955E-11 -4.603678643735388E-12
 COV   2.514676528770286E-10 -2.279232415349592E-10  1.947935685710579E-16
 COV   8.515800262178615E-09 -8.389102951810586E-09  8.497486312702019E-09
 NOR   7.938634416482711E+13  3.343381298745767E+13 -1.200907298259059E+09
 NOR  -2.247042373873384E+10 -2.817128763411956E+10 -5.105295854112275E+10
 NOR   2.974647195628134E+14  4.957136808425950E+08 -1.242997386266745E+12
 NOR  -1.348059570318656E+12 -1.308238796170949E+12  1.935910772602195E+10
 NOR   1.443037343414269E+09 -1.497261968285778E+08 -1.368622186206349E+08
 NOR   3.975738938752929E+10  3.923986334065336E+10  3.860563338516267E+10
 NOR   4.319088892959657E+10  4.249532802862795E+10  4.193868333465771E+10
30102
! Cartesian position and velocity vectors
 CAR  -3.14162391502964E+00  3.88320029190407E+00  2.19130532379335E+00 -5.61643045692306E-03 -4.53286235514152E-03  1.80728567542909E-04
 MJD     56184.252843210 TDT
 MAG  10.824  0.150
! Non-grav parameters: model used, actual number in use, dimension
 LSP   0  0    6
! RMS    7.32881E-07   5.55335E-07   6.55452E-07   6.96457E-10   5.67081E-10   7.84048E-10
! EIG   8.17088E-11   2.77048E-10   7.84908E-10   3.14027E-07   7.00459E-07   8.28175E-07
! WEA  -0.83332  -0.54713   0.07887   0.00065  -0.00051  -0.00033
 COV   5.371149655803086E-13  2.354557490078648E-13  6.163733473770746E-14
 COV  -4.310096570860611E-16  2.646251750285150E-16  1.741935780011843E-16
 COV   3.083965957221651E-13 -1.308201104779745E-13 -1.500616034123045E-16
 COV   2.338140588946915E-16  1.409622722570219E-16  4.296172191351023E-13
 COV   5.330382327494049E-17  2.389640980392886E-17 -8.929273374192896E-17
 COV   4.850526570879810E-19 -2.314954563036713E-19 -1.673993913135176E-20
 COV   3.215811356890292E-19 -4.105251353079845E-20  6.147316166044891E-19
 NOR   1.072615579930309E+14 -1.066168604548359E+14 -6.569888704265027E+13
 NOR   1.004627328368780E+17  6.538548101944186E+16 -8.387033251284214E+15
 NOR   1.280902995274505E+14  7.246404132055627E+13 -1.035061385349066E+17
 NOR  -8.492601628913163E+16  2.875193223426846E+15  4.504308705830334E+13
 NOR  -6.321983653161267E+16 -4.701099873391202E+16  3.681985316198495E+15
 NOR   9.797453641654354E+19  6.694855835987427E+19 -6.777071411859344E+18
 NOR   6.275659640894386E+19  1.316404781755725E+17  3.703086751169385E+18
30102
! Cometary elements: q, e, i, long. node, arg. peric., pericenter time
 COM   5.03458190889796E+00  0.040771549264521   23.7203565529475   42.1730230435507  282.2905324002848   54189.3611193227
 MJD     56184.252843210 TDT
 MAG  10.824  0.150
! Non-grav parameters: model used, actual number in use, dimension
 LSP   0  0    6
! RMS    3.87918E-07   6.51489E-08   7.30288E-06   1.58577E-05   9.22811E-05   1.14442E-03
! EIG   1.20213E-08   8.98748E-08   1.25380E-07   3.74919E-07   3.90447E-07   1.14442E-03
! WEA   0.00008  -0.00001  -0.00000  -0.00000  -0.00139  -1.00000
 COV   1.504800721007925E-13 -2.422178530771714E-14  2.151171494103268E-15
 COV  -1.225975297221832E-13 -8.382101158080757E-12 -1.100172841303390E-10
 COV   4.244382698129631E-15 -3.258115757464927E-16  1.998961114424991E-14
 COV   1.069297154701371E-12  1.301378493479326E-11  5.333200704258051E-11
 COV  -2.050896751952509E-11  2.333739550748955E-11  5.590245248747864E-11
 COV   2.514676528770286E-10 -2.279232415349592E-10  1.050618792829317E-11
 COV   8.515800262178615E-09  1.039928748349223E-07  1.309697579460278E-06
 NOR   1.910031380091639E+14  1.101083828007890E+15  5.415698596554638E+09
 NOR  -1.904213728150527E+12 -2.099654943660460E+12  1.718360321724567E+11
 NOR   6.594040215474187E+15  2.892041079793966E+10 -1.123740484892186E+13
 NOR  -1.236825479719708E+13  1.009127351600494E+12  1.935910772602195E+10
 NOR   1.443037343414269E+09 -1.497261968285778E+08  1.121826282667314E+07
 NOR   3.975738938752930E+10  3.923986334065338E+10 -3.164409771153927E+09
 NOR   4.319088892959659E+10 -3.483238570406764E+09  2.817726660453150E+08
30102
! Cometary elements: q, e, i, long. node, arg. peric., true anomaly
 COT   5.03458190889796E+00  0.040771549264521   23.7203565529475   42.1730230435507  282.2905324002848  164.7800996674409
 MJD     56184.252843210 TDT
 MAG  10.824  0.150
! Non-grav parameters: model used, actual number in use, dimension
 LSP   0  0    6
! RMS    3.87918E-07   6.51489E-08   7.30288E-06   1.58577E-05   9.22811E-05   8.49937E-05
! EIG   1.74402E-08   5.00448E-08   1.25105E-07   3.26546E-07   3.85776E-07   2.18363E-06
! WEA   0.04013  -0.00500  -0.00130   0.01089  -0.73547   0.67626
 COV   1.504800721007925E-13 -2.422178530771714E-14  2.151171494103268E-15
 COV  -1.225975297221832E-13 -8.382101158080757E-12  6.575075853993821E-12
 COV   4.244382698129631E-15 -3.258115757464927E-16  1.998961114424991E-14
 COV   1.069297154701371E-12 -7.738482654697783E-13  5.333200704258051E-11
 COV  -2.050896751952509E-11  2.333739550748955E-11 -4.268813130141451E-12
 COV   2.514676528770286E-10 -2.279232415349592E-10  5.906817699168558E-13
 COV   8.515800262178615E-09 -7.729764624669399E-09  7.223921769874268E-09
 NOR   8.627832391589303E+13  4.893924976727867E+14 -1.251951292039227E+09
 NOR  -2.342551841691610E+10 -2.936869482188474E+10 -5.752769862539915E+10
 NOR   3.184235667315006E+15 -1.705276291283080E+09 -2.598614247313518E+12
 NOR  -2.859066417268424E+12 -3.163387014945169E+12  1.935910772602195E+10
 NOR   1.443037343414276E+09 -1.497261968285699E+08 -1.479318584375060E+08
 NOR   3.975738938752929E+10  3.923986334065336E+10  4.172812007859277E+10
 NOR   4.319088892959657E+10  4.593241957893355E+10  4.899717787049525E+10
! EPH =   JPLDE431
